TERRA
1 25994U 99068A   26215.96183296  .00000282  00000+0  66299-4 0  9998
2 25994  97.9425 263.6065 0003684  84.3624  14.6790 14.61137646416583
AQUA
1 27424U 02022A   26215.95522156  .00000619  00000+0  13290-3 0  9999
2 27424  98.4318 186.2026 0001605  98.2681 314.7466 14.62155334290258
CARTOSAT-1
1 28649U 05017A   26215.79061282  .00001225  00000+0  12867-3 0  9999
2 28649  97.5305 236.6971 0000657 104.9836 255.1456 14.91163895150914
COSMO-SKYMED 1
1 31598U 07023A   26215.98703032  .00001663  00000+0  14863-3 0  9996
2 31598  97.8847  48.2517 0001093  87.3518 272.7829 14.97303108 36948
TERRASAR-X
1 31698U 07026A   26215.35342643  .00000291  00000+0  17071-4 0  9999
2 31698  97.4464 222.3906 0001782  83.4599 276.6839 15.19149783 60389
WORLDVIEW-1
1 32060U 07041A   26215.88009878  .00005604  00000+0  23259-3 0  9995
2 32060  97.3825 334.9582 0001343 112.6012 247.5368 15.24244647 50149
RADARSAT-2
1 32382U 07061A   26215.96785543 -.00000083  00000+0 -15141-4 0  9993
2 32382  98.5795 222.2204 0001291  85.8083 274.3247 14.29983017972788
GEOEYE 1
1 33331U 08042A   26215.90464316  .00000352  00000+0  75157-4 0  9994
2 33331  98.1311 289.2677 0003177 265.5135  94.5705 14.64665257957135
WORLDVIEW-2
1 35946U 09055A   26215.96920753  .00000070  00000+0  37622-4 0  9993
2 35946  98.4740 288.7667 0005583  83.3809 276.8013 14.37911911882515
TANDEM-X
1 36605U 10030A   26215.48516192  .00000275  00000+0  16307-4 0  9990
2 36605  97.4475 222.5211 0001799  95.8733 264.2706 15.19149887893824
PLEIADES 1A
1 38012U 11076F   26215.94930627  .00000148  00000+0  41570-4 0  9998
2 38012  98.1953 290.4050 0001342  72.7199  31.2832 14.58556848778955
SPOT 6
1 38755U 12047A   26215.94499181 -.00000018  00000+0  58755-5 0  9997
2 38755  98.2088 282.6875 0001247  99.9402 260.1939 14.58548069740012
PLEIADES 1B
1 39019U 12068A   26215.96365038  .00000080  00000+0  27111-4 0  9998
2 39019  98.1923 290.3511 0001248  76.4259 283.7080 14.58544159727814
LANDSAT 8
1 39084U 13008A   26215.88769981  .00000248  00000+0  65087-4 0  9991
2 39084  98.2273 285.4493 0001290  92.5269 267.6077 14.57105988704843
KOMPSAT-5
1 39227U 13042A   26216.05197344  .00001213  00000+0  91060-4 0  9999
2 39227  97.6219  42.0820 0003009   0.1798 359.9429 15.04466751711056
SENTINEL-1A
1 39634U 14016A   26215.95599816  .00000031  00000+0  16130-4 0  9993
2 39634  98.1615 222.7661 0001381  84.1042 276.0316 14.59278608656984
ALOS-2
1 39766U 14029A   26215.95560516  .00001047  00000+0  14701-3 0  9997
2 39766  97.9229 312.4371 0001549  93.5567 266.5822 14.79470159658643
WORLDVIEW-3
1 40115U 14048A   26215.93887082  .00000670  00000+0  84656-4 0  9994
2 40115  97.8540 290.1078 0002493 124.6863 235.4587 14.85092815648994
SENTINEL-2A
1 40697U 15028A   26215.90701782 -.00000041  00000+0  11739-5 0  9993
2 40697  98.5661 290.0760 0001350  92.1500 267.9837 14.30818850580556
LANDSAT 9
1 49260U 21088A   26215.90000000  .00000250  00000+0  65000-4 0  9991
2 49260  98.2300 285.0000 0001200  90.0000 270.0000 14.57110000250000
